LEMUR-2-PETERG          
1 42841U 17042S   26068.48235713  .00023240  00000+0  81076-3 0  9993
2 42841  97.3980 253.6596 0003700 341.6938  18.4169 15.29611459473171
STARLINK-35733          
1 66224U 25244U   26068.68068331  .00009469  00000+0  33144-3 0  9999
2 66224  53.1564 230.2687 0001088  70.6872 289.4247 15.30198138 21650
